ONEWEB-0520             
1 54138U 22138AB  25318.11341502  .00000032  00000+0  46766-4 0  9990
2 54138  87.9233 347.7500 0002149  99.8770 260.2605 13.19726659148459
ONEWEB-0521             
1 54139U 22138AC  25318.14658127  .00000040  00000+0  66944-4 0  9997
2 54139  87.9227 347.7280 0001587  98.2623 261.8690 13.19727216148409
ONEWEB-0522             
1 54140U 22138AD  25318.05023198  .00000093  00000+0  20058-3 0  9996
2 54140  87.9233 347.7482 0001968  99.5371 260.5984 13.19723778148433
ONEWEB-0523             
1 54141U 22138AE  25318.03271786 -.00000001  00000+0 -34917-4 0  9994
2 54141  87.9179 317.3512 0001399  64.0773 296.0504 13.20771900150900
ONEWEB-0524             
1 54142U 22138AF  25318.02167253  .00000038  00000+0  61184-4 0  9991
2 54142  87.9177 317.3553 0002314  67.8861 292.2518 13.20771214150902
ONEWEB-0525             
1 54143U 22138AG  25318.14500598 -.00000023  00000+0 -88887-4 0  9993
2 54143  87.9222 347.7510 0002100 100.5363 259.6007 13.19726348148463
ONEWEB-0526             
1 54144U 22138AH  25318.32981514  .00000156  00000+0  35680-3 0  9992
2 54144  87.9228 347.7016 0001904  95.4957 264.6393 13.19727250148460
ONEWEB-0529             
1 54145U 22138AJ  25318.10552276 -.00000016  00000+0 -71187-4 0  9998
2 54145  87.9216 347.7776 0002041  97.4004 262.7361 13.19725819148451
